CAS-2T & KS-1Q          
1 41847U 16066G   20186.39274695  .00000054  00000-0  18323-4 0  9995
2 41847  98.6526 237.0805 0365789 178.2825 181.9717 14.38074968191856
NAYIF-1 (EO-88)         
1 42017U 17008BX  20186.46119093  .00000951  00000-0  39161-4 0  9999
2 42017  97.3591 253.7752 0004473 258.0854 101.9883 15.26537298188141
MAX VALIER SAT          
1 42778U 17036P   20186.42892503  .00000585  00000-0  28051-4 0  9993
2 42778  97.3037 239.5947 0011108 330.1048  29.9553 15.22646021168319
RADFXSAT (FOX-1B)       
1 43017U 17073E   20186.30357846  .00000465  00000-0  41683-4 0  9997
2 43017  97.7224  97.8888 0256928 355.8358   4.0713 14.78958464141653
FOX-1D (AO-92)          
1 43137U 18004AC  20186.48822067  .00000624  00000-0  28569-4 0  9991
2 43137  97.4451 257.5337 0009143   7.0460 353.0904 15.24150697137641
DIWATA-2B               
1 43678U 18084H   20186.58012230  .00000323  00000-0  37871-4 0  9995
2 43678  97.8865 304.9848 0011256 116.9064 243.3266 14.91640142 91571
ES'HAIL 2               
1 43700U 18090A   20186.50109788  .00000134  00000-0  00000-0 0  9995
2 43700   0.0270  36.4712 0001672  88.0835   4.5850  1.00269957  5888
FOX-1CLIFF (AO-95)      
1 43770U 18099N   20186.44222130 -.00000195  00000-0 -12591-4 0  9992
2 43770  97.7053 257.5266 0015660 136.3014 223.9450 14.95000207 86459
ITASAT 1                
1 43786U 18099AE  20186.43530647 -.00000037  00000-0  18364-5 0  9992
2 43786  97.7070 257.9515 0016419 130.3604 229.9053 14.95339098 86478
JY1SAT (JO-97)          
1 43803U 18099AX  20186.44782182 -.00000238  00000-0 -16250-4 0  9991
2 43803  97.7027 257.7786 0016316 130.9690 229.2945 14.95515775 86476
PSAT2 (NO-104)          
1 44354U 19036R   20186.51615510  .00007954  00000-0  11379-3 0  9999
2 44354  28.5290 268.5342 0363804 133.2204 229.9365 15.03656181 56392
BRICSAT2 (NO-103)       
1 44355U 19036S   20186.52866351  .00014839  00000-0  20525-3 0  9995
2 44355  28.5291 258.8684 0341887 148.9156 213.2145 15.09182640 56494
JAISAT-1                
1 44419U 19038F   20186.42224964  .00000542  00000-0  34435-4 0  9997
2 44419  97.5394 147.8197 0023270  73.3769 287.0015 15.12801934 55161
DUCHIFAT-3              
1 44854U 19089C   20185.88000286  .00000135  00000-0  17308-4 0  9992
2 44854  36.9695   1.2757 0007776 207.4251 152.6064 14.99077043 30769
RS-44 & BREEZE-KM R/B   
1 44909U 19096E   20186.55872948  .00000005  00000-0 -26387-4 0  9992
2 44909  82.5218 343.9449 0217333 186.2314 173.6077 12.79708202 24379
ORBITAL FACTORY 2 (OF-2)
1 45113U 19071C   20186.55944892  .00000796  00000-0  35855-4 0  9997
2 45113  51.6444 280.9112 0013459 118.5704 241.6634 15.33404035 23752
HUSKYSAT-1              
1 45119U 19071J   20186.53545618  .00000993  00000-0  41591-4 0  9997
2 45119  51.6440 280.7521 0012775 114.9450 245.2861 15.33617042 23749
